City,Title,Address,Website,Phone Number
New York,"Tone House","32 E 31st St, New York, NY 10016, United States","tonehouse.com","+1 646-453-6633"
New York,"GYM NYC","227 Mulberry St, New York, NY 10012, United States","thegym.nyc","+1 646-678-4723"
New York,"DOGPOUND Gym, Personal Training & Group Fitness Classes","1 Renwick St, New York, NY 10013, United States","thedogpound.com","+1 646-620-6533"
New York,"Chelsea Piers Fitness","60 Chelsea Piers, New York, NY 10011, United States","fitness.chelseapiers.com","+1 212-336-6000"
New York,"COMPLETE by CompleteBody (Union Square)","25 W 14th St, New York, NY 10011, United States","completebody.com","+1 212-777-7705"
New York,"Mark Fisher Fitness","411 W 39th St, New York, NY 10018, United States","markfisherfitness.com","+1 917-983-0631"
New York,"Crunch Fitness - 38th Street","1385 Broadway, New York, NY 10018, United States","crunch.com","+1 212-869-7788"
New York,"Brick New York","465 Lexington Ave, New York, NY 10017, United States","bricknewyork.com","+1 917-388-2666"
New York,"Mid City Gym & Tanning","345 W 42nd St, New York, NY 10036, United States","midcitygym.com","+1 212-757-0850"
New York,"Crunch Fitness - 54th Street","250 W 54th St, New York, NY 10019, United States","crunch.com","+1 212-307-7760"
New York,"Orangetheory Fitness","321 W 37th St, New York, NY 10018, United States","orangetheory.com","+1 646-829-9330"
New York,"Crunch Fitness - Midtown East","511 Lexington Ave, New York, NY 10017, United States","crunch.com","+1 212-448-7330"
New York,"Planet Fitness","423 W 55th St, New York, NY 10019, United States","planetfitness.com","+1 212-336-0750"
New York,"Planet Fitness","158 W 27th St, New York, NY 10001, United States","planetfitness.com","+1 212-268-2501"
New York,"Crunch Fitness - Union Square","113 4th Ave, New York, NY 10003, United States","crunch.com","+1 212-533-0001"
New York,"Gotham Gym","600 Washington St, New York, NY 10014, United States","gothamgymnyc.com","+1 646-490-8500"
New York,"CompleteBody Financial District","10 Hanover Square, New York, NY 10005, United States","completebody.com","+1 212-777-7702"
New York,"Blink Fitness","111 Nassau St, New York, NY 10038, United States","locations.blinkfitness.com","+1 646-561-5459"
New York,"Oculus Fitness","151 William St, New York, NY 10038, United States","oculusfitness.com","+1 646-832-4788"
New York,"Hype Gym Union Square","37 Union Square W f2, New York, NY 10003, United States","hypegym.com","+1 917-291-0231"
New York,"Crunch Fitness - Bowery","2 Cooper Sq, New York, NY 10003, United States","crunch.com","+1 212-614-0120"
New York,"92Y May Center for Health, Fitness & Sport","1395 Lexington Ave, New York, NY 10128, United States","92ny.org","+1 212-415-5700"
New York,"Oculus Fitness","151 William St, New York, NY 10038, United States","oculusfitness.com","+1 646-832-4788"
New York,"Gotham Gym","600 Washington St, New York, NY 10014, United States","gothamgymnyc.com","+1 646-490-8500"
New York,"CompleteBody Midtown East","301 E 57th St, New York, NY 10022, United States","completebody.com","+1 212-777-7703"
New York,"Orangetheory Fitness","124 W 23rd St, New York, NY 10011, United States","orangetheory.com","+1 646-588-0133"
New York,"Manhattan Plaza Health Club","482 W 43rd St 2nd floor, New York, NY 10036, United States","mphc.com","+1 646-590-4411"
New York,"SWEAT440 Chelsea","600 6th Ave, New York, NY 10011, United States","sweat440.com","+1 888-507-9328"
New York,"Life Time","62 Cooper Sq, New York, NY 10003, United States","lifetime.life","+1 917-438-0300"
New York,"Life Time","60 W 23rd St, New York, NY 10010, United States","lifetime.life","+1 212-381-8900"
New York,"Blink Fitness","5 Bryant Pk, New York, NY 10018, United States","locations.blinkfitness.com","+1 646-795-2681"
New York,"The Fort NYC | Classic Strength Training Program With Barbell","30 W 21st St, New York, NY 10010, United States","thefortnyc.com","+1 917-409-6782"
New York,"Hype Gym Union Square","37 Union Square W f2, New York, NY 10003, United States","hypegym.com","+1 917-291-0231"
New York,"Crunch Fitness - 59th Street","1109 2nd Ave, New York, NY 10022, United States","crunch.com","+1 212-758-3434"
New York,"Nimble Fitness","42 E 12th St, New York, NY 10003, United States","nimblefitness.com","+1 212-633-9030"
New York,"Nimble Fitness","42 E 12th St, New York, NY 10003, United States","nimblefitness.com","+1 212-633-9030"
New York,"Nimble Fitness","42 E 12th St, New York, NY 10003, United States","nimblefitness.com","+1 212-633-9030"
New York,"Nimble Fitness","42 E 12th St, New York, NY 10003, United States","nimblefitness.com","+1 212-633-9030"
New York,"Nimble Fitness","42 E 12th St, New York, NY 10003, United States","nimblefitness.com","+1 212-633-9030"
New York,"Nimble Fitness","42 E 12th St, New York, NY 10003, United States","nimblefitness.com","+1 212-633-9030"
New York,"TMPL - West Village","125 7th Ave S, New York, NY 10014, United States","tmplclubs.com","+1 212-206-1500"
New York,"Planet Fitness","22 E 14th St, New York, NY 10003, United States","planetfitness.com","+1 646-755-6500"
New York,"Central Rock Gym","21 West End Ave, New York, NY 10069, United States","centralrockgym.com","+1 212-265-7625"
New York,"Central Rock Gym","21 West End Ave, New York, NY 10069, United States","centralrockgym.com","+1 212-265-7625"
New York,"Central Rock Gym","21 West End Ave, New York, NY 10069, United States","centralrockgym.com","+1 212-265-7625"
New York,"Central Rock Gym","21 West End Ave, New York, NY 10069, United States","centralrockgym.com","+1 212-265-7625"
New York,"Central Rock Gym","21 West End Ave, New York, NY 10069, United States","centralrockgym.com","+1 212-265-7625"
New York,"Equinox Gramercy","315 Park Ave S, New York, NY 10010, United States","equinox.com","+1 212-320-9870"
New York,"SWEAT440 FiDi","80 John St, New York, NY 10038, United States","sweat440.com","+1 888-507-9328"
New York,"Brooklyn Athletic Club","8 Berry St, Brooklyn, NY 11249, United States","brooklynathleticclub.com","+1 718-486-6929"
New York,"Equinox Sports Club New York","160 Columbus Ave, New York, NY 10023, United States","equinox.com","+1 212-362-6800"
New York,"Blink Fitness","16 E 4th St, New York, NY 10012, United States","locations.blinkfitness.com","+1 212-245-6008"
New York,"Crunch Fitness - 34th Street","222 E 34th St, New York, NY 10016, United States","crunch.com","+1 212-545-9757"
New York,"Fit Club NY","153 W 27th St Suite 1204, New York, NY 10001, United States","fitclubny.com","+1 646-875-8348"
New York,"Powerhouse Gym Long Island City","3030 Northern Blvd, Queens, NY 11101, United States","powerhousegymlic.net","+1 347-937-3030"
New York,"Chelsea Piers Fitness","265 Schermerhorn St, Brooklyn, NY 11217, United States","chelseapiers.com","+1 718-407-6400"
New York,"TMPL - Astor Place","4 Astor Pl, New York, NY 10003, United States","tmplclubs.com","+1 917-877-1400"
New York,"Barry's TriBeCa","1 York St, New York, NY 10013, United States","barrys.com","+1 646-569-5310"
New York,"Mile High Run Club","24 W 25th St, New York, NY 10010, United States","milehighrunclub.com","+1 212-466-6472"
New York,"Five Points Academy","148 Lafayette St, New York, NY 10013, United States","academyfivepoints.com","+1 212-226-4474"
New York,"Fhitting Room","31 W 19th St, New York, NY 10011, United States","fhittingroom.com","+1 646-850-0469"
New York,"Church Street Boxing Gym","153 W 29th St, New York, NY 10001, United States","csboxinggym.com","+1 646-368-9260"
New York,"My Gym Upper East 83rd","1608 1st Ave., New York, NY 10028, United States","mygym.com","+1 212-249-0894"
New York,"The Last Round","115 W 30th St, New York, NY 10001, United States","lastroundnyc.com","+1 646-216-6801"
New York,"Equinox Park Avenue","1 Park Ave, New York, NY 10016, United States","equinox.com","+1 212-779-1727"
New York,"New York Sports Clubs - 16th & 8th","128 8th Ave, New York, NY 10011, United States","newyorksportsclubs.com","+1 212-627-0065"
New York,"Life Time","605 W 42nd St, New York, NY 10036, United States","lifetime.life","+1 212-564-1300"
New York,"Life Time","605 W 42nd St, New York, NY 10036, United States","lifetime.life","+1 212-564-1300"
